     3.03           N: GNSS NAV DATA    M: Mixed            RINEX VERSION / TYPE
sbp2rinex v2.2 (RTKL                    20210512 233340 UTC PGM / RUN BY / DATE 
log: corrections-conus-CAFT00USA-prod-l1l5-rtk-osr_202104281COMMENT             
format: Swift Navigation SBP, option: CONVBASE,OBSALL,EPHALLCOMMENT             
                                                            END OF HEADER       
G30 2021  4 28 22  0  0 -.419126823545E-03 -.511590769747E-11  .000000000000E+00
      .720000000000E+02  .519687500000E+02  .458197657200E-08  .139218802213E+01
      .284239649773E-05  .513401580974E-02  .129994004965E-04  .515372301483E+04
      .338400000000E+06 -.176951289177E-06  .220792927015E+00  .186264514923E-07
      .937489704198E+00  .116718750000E+03 -.279861762490E+01 -.795926010656E-08
     -.467876631797E-09  .200000000000E+01  .215500000000E+04  .100000000000E+01
      .400000000000E+01  .000000000000E+00  .372529029846E-08  .720000000000E+02
      .333644000000E+06  .600000000000E+01
C27 2021  4 28 20  0  0  .523006194271E-03  .628475049780E-11  .000000000000E+00
      .280000000000E+02 -.152406250000E+03  .379015787529E-08 -.394579332270E+00
     -.755209475756E-05  .749914324842E-03  .476976856589E-05  .528262605667E+04
      .331200000000E+06 -.516884028912E-07  .268122084676E+01 -.661239027977E-07
      .966735648534E+00  .266812500000E+03  .975954155128E+00 -.701707800375E-08
     -.393587823084E-09  .120000000000E+02  .799000000000E+03  .100000000000E+01
      .200000000000E+01  .000000000000E+00 -.449999992824E-08 -.449999992824E-08
      .333631000000E+06  .280000000000E+02
G15 2021  4 28 22  0  0 -.152997206897E-03  .261479726760E-11  .000000000000E+00
      .210000000000E+02 -.240000000000E+02  .562630578679E-08 -.288831576375E+01
     -.123120844364E-05  .131207158556E-01  .481493771076E-05  .515359402657E+04
      .338400000000E+06  .134110450745E-06 -.967453506825E+00 -.162050127983E-06
      .928655763657E+00  .268750000000E+03  .979116442736E+00 -.842927968476E-08
     -.283583240952E-09  .200000000000E+01  .215500000000E+04  .100000000000E+01
      .200000000000E+01  .000000000000E+00 -.107102096081E-07  .210000000000E+02
      .333648000000E+06  .400000000000E+01
C36 2021  4 28 20  0  0 -.728836748749E-03  .197264427015E-11  .000000000000E+00
      .100000000000E+01  .149296875000E+03  .364300888880E-08  .271081287071E+01
      .718189403415E-05  .659203389660E-03  .115428119898E-04  .528263014793E+04
      .331200000000E+06  .107102096081E-07  .574522584795E+00 -.116415321827E-07
      .951655766088E+00  .124468750000E+03 -.158336507379E+01 -.664384817152E-08
      .392873507616E-10  .120000000000E+02  .799000000000E+03  .100000000000E+01
      .200000000000E+01  .000000000000E+00 -.185999997626E-07 -.185999997626E-07
      .333635000000E+06  .100000000000E+01
E 1 2021  4 28 20 30  0 -.109669513768E-02 -.807176547823E-11  .000000000000E+00
      .430000000000E+02  .223562500000E+03  .281690304960E-08  .222956534577E+00
      .102128833532E-04  .131841166876E-03  .575929880142E-05  .544060924530E+04
      .333000000000E+06 -.316649675369E-07  .104918042742E+01  .465661287308E-07
      .978337889437E+00  .228250000000E+03  .580972913911E+00 -.557166065346E-08
      .415017287136E-09  .500000000000E+01  .215500000000E+04  .100000000000E+01
      .312000000000E+01  .000000000000E+00  .232830643654E-09  .232830643654E-09
      .333669000000E+06  .000000000000E+00
E12 2021  4 28 20 30  0  .523679924663E-02 -.188578042071E-10  .000000000000E+00
      .430000000000E+02 -.225000000000E+03  .246903141650E-08 -.210398160554E+01
     -.103823840618E-04  .454772729427E-03  .122040510178E-04  .544062187386E+04
      .333000000000E+06  .100582838058E-06  .313259052721E+01  .335276126862E-07
      .991973573304E+00  .906875000000E+02  .454765683845E-01 -.534522264998E-08
     -.191793703263E-09  .500000000000E+01  .215500000000E+04  .100000000000E+01
      .312000000000E+01  .000000000000E+00 -.102445483208E-07 -.102445483208E-07
      .333669000000E+06  .000000000000E+00
E 9 2021  4 28 20 30  0  .568548141746E-02 -.127755583890E-10  .000000000000E+00
      .430000000000E+02 -.222187500000E+02  .365765235590E-08  .200681356414E+01
     -.996515154839E-06  .384676270187E-03  .425800681114E-05  .544059988403E+04
      .333000000000E+06 -.596046447754E-07 -.105335650556E+01 -.465661287308E-07
      .960369565944E+00  .251406250000E+03 -.700952162317E+00 -.575809699071E-08
     -.300726812193E-09  .500000000000E+01  .215500000000E+04  .100000000000E+01
      .312000000000E+01  .000000000000E+00  .139698386192E-08  .162981450558E-08
      .333669000000E+06  .000000000000E+00
G 7 2021  4 28 21 59 44  .135844107717E-03  .111413100967E-10  .000000000000E+00
      .200000000000E+01  .450312500000E+02  .431303679815E-08  .154366753652E+01
      .245310366154E-05  .147813609801E-01  .134464353323E-04  .515377381134E+04
      .338384000000E+06 -.307336449623E-06  .203202766382E+00  .745058059692E-08
      .952272350949E+00  .118062500000E+03 -.233923987238E+01 -.797426073140E-08
     -.544665544649E-09  .200000000000E+01  .215500000000E+04  .100000000000E+01
      .200000000000E+01  .000000000000E+00 -.111758708954E-07  .200000000000E+01
      .333669000000E+06  .400000000000E+01
C33 2021  4 28 20  0  0 -.942445592955E-03  .382183173997E-11  .000000000000E+00
      .100000000000E+01  .235000000000E+02  .420660379336E-08  .812858743492E+00
      .105006620288E-05  .540520180948E-03  .548688694835E-05  .528261165237E+04
      .331200000000E+06  .195577740669E-07 -.153481755947E+01 -.251457095146E-07
      .964004076193E+00  .249406250000E+03 -.741333287553E+00 -.694457498371E-08
      .313227332890E-09  .120000000000E+02  .799000000000E+03  .100000000000E+01
      .200000000000E+01  .000000000000E+00 -.425000017401E-07 -.425000017401E-07
      .333655000000E+06  .100000000000E+01
E 4 2021  4 28 20 30  0 -.759821035899E-03 -.805755462352E-11  .000000000000E+00
      .430000000000E+02 -.260937500000E+02  .381873049402E-08 -.271426536908E+01
     -.133737921715E-05  .298763625324E-03  .416487455368E-05  .544059982681E+04
      .333000000000E+06  .428408384323E-07 -.104834342469E+01 -.167638063431E-07
      .954418791168E+00  .251312500000E+03 -.146180167382E+01 -.588703093275E-08
     -.354300472323E-09  .500000000000E+01  .215500000000E+04  .100000000000E+01
      .312000000000E+01  .000000000000E+00 -.325962901115E-08 -.349245965481E-08
      .333669000000E+06  .000000000000E+00
E30 2021  4 28 20 30  0  .298784766346E-02 -.307238678943E-10  .000000000000E+00
      .430000000000E+02  .207812500000E+03  .283976114459E-08  .230141016405E+01
      .977888703346E-05  .431701657362E-03  .737793743610E-05  .544060737228E+04
      .333000000000E+06 -.931322574615E-08  .105108473129E+01 -.372529029846E-08
      .975834264603E+00  .190218750000E+03  .871981081101E+00 -.558808990923E-08
      .449661587353E-09  .500000000000E+01  .215500000000E+04  .100000000000E+01
      .312000000000E+01  .000000000000E+00  .186264514923E-08  .209547579288E-08
      .333669000000E+06  .000000000000E+00
E15 2021  4 28 20 30  0  .817066233139E-03 -.208899564313E-11  .000000000000E+00
      .430000000000E+02 -.203593750000E+03  .255224916857E-08  .170193929178E+01
     -.932067632675E-05  .252524390817E-03  .969506800175E-05  .544061153793E+04
      .333000000000E+06  .577419996262E-07  .312910080928E+01 -.149011611938E-07
      .995093181740E+00  .149187500000E+03 -.620050969737E+00 -.529164898985E-08
     -.173578658819E-09  .500000000000E+01  .215500000000E+04  .100000000000E+01
      .312000000000E+01  .000000000000E+00  .535510480404E-08  .582076609135E-08
      .333669000000E+06  .000000000000E+00
E36 2021  4 28 20 30  0 -.199947273359E-03 -.510169684276E-11  .000000000000E+00
      .430000000000E+02 -.236437500000E+03  .242688680386E-08  .290752870284E+01
     -.109896063805E-04  .265404814854E-03  .109057873487E-04  .544062101936E+04
      .333000000000E+06 -.465661287308E-07  .312913027098E+01  .558793544769E-08
      .995139882473E+00  .123968750000E+03 -.259887582572E+00 -.529914930227E-08
     -.216794744657E-09  .500000000000E+01  .215500000000E+04  .100000000000E+01
      .312000000000E+01  .000000000000E+00  .582076609135E-08  .675208866596E-08
      .333669000000E+06  .000000000000E+00
E 7 2021  4 28 20 30  0 -.531305558980E-03 -.464694949187E-11  .000000000000E+00
      .430000000000E+02 -.214375000000E+02  .375194199773E-08 -.839363635779E+00
     -.894069671631E-06  .367259723134E-03  .408478081226E-05  .544060367393E+04
      .333000000000E+06 -.204890966415E-07 -.104839366862E+01  .000000000000E+00
      .954418802871E+00  .252687500000E+03 -.989716989982E+00 -.590524597720E-08
     -.269654089318E-09  .500000000000E+01  .215500000000E+04  .100000000000E+01
      .312000000000E+01  .000000000000E+00  .512227416039E-08  .582076609135E-08
      .333672000000E+06  .000000000000E+00
E 8 2021  4 28 20 30  0  .601045816438E-02 -.601119154453E-11  .000000000000E+00
      .430000000000E+02 -.183125000000E+02  .370408286135E-08 -.392018687278E+00
     -.977888703346E-06  .306760193780E-03  .410154461861E-05  .544060238457E+04
      .333000000000E+06  .372529029846E-08 -.105337268835E+01 -.111758708954E-07
      .960338620838E+00  .254875000000E+03 -.655125940419E+00 -.586310136456E-08
     -.268582616115E-09  .500000000000E+01  .215500000000E+04  .100000000000E+01
      .312000000000E+01  .000000000000E+00 -.349245965481E-08 -.419095158577E-08
      .333673000000E+06  .000000000000E+00
